start=new Date('2023-01-23T00:00:00.000Z').valueOf();
sats=[{"ELEMENT_SET_NO":"999","GP_ID":"223600878","ECCENTRICITY":"0.00009790","MEAN_MOTION":"15.08831994","MEAN_ANOMALY":"237.4352","FILE":"3758205","MEAN_ELEMENT_THEORY":"SGP4","TLE_LINE2":"2 51779  53.2155  65.2382 0000979 122.6734 237.4352 15.08831994 51671","SEMIMAJOR_AXIS":"6917.905","EPOCH":"2023-01-22T19:22:57.580032","INCLINATION":"53.2155","CENTER_NAME":"EARTH","MEAN_MOTION_DDOT":"0.0000000000000","CLASSIFICATION_TYPE":"U","NORAD_CAT_ID":"51779","REF_FRAME":"TEME","LAUNCH_DATE":"2022-02-25","BSTAR":"-0.00024867000000","ARG_OF_PERICENTER":"122.6734","PERIAPSIS":"539.093","OBJECT_ID":"2022-017M","REV_AT_EPOCH":"5167","COUNTRY_CODE":"US","RA_OF_ASC_NODE":"65.2382","PERIOD":"95.438","RCS_SIZE":"LARGE","TLE_LINE1":"1 51779U 22017M   23022.80761088 -.00004242  00000-0 -24867-3 0  9992","OBJECT_NAME":"STARLINK-3611","TIME_SYSTEM":"UTC","OBJECT_TYPE":"PAYLOAD","DECAY_DATE":null,"SITE":"AFWTR","MEAN_MOTION_DOT":"-0.00004242","APOAPSIS":"540.447","EPHEMERIS_TYPE":"0"},{"ELEMENT_SET_NO":"999","MEAN_ANOMALY":"270.0283","GP_ID":"223594949","MEAN_MOTION":"15.08860638","ECCENTRICITY":"0.00012570","FILE":"3757927","CENTER_NAME":"EARTH","MEAN_MOTION_DDOT":"0.0000000000000","INCLINATION":"53.2153","TLE_LINE2":"2 51780  53.2153  67.0679 0001257  90.0853 270.0283 15.08860638 51662","EPOCH":"2023-01-22T09:36:07.370784","SEMIMAJOR_AXIS":"6917.817","MEAN_ELEMENT_THEORY":"SGP4","REF_FRAME":"TEME","BSTAR":"0.00220430000000","ARG_OF_PERICENTER":"90.0853","LAUNCH_DATE":"2022-02-25","NORAD_CAT_ID":"51780","CLASSIFICATION_TYPE":"U","COUNTRY_CODE":"US","RA_OF_ASC_NODE":"67.0679","PERIOD":"95.436","PERIAPSIS":"538.813","REV_AT_EPOCH":"5166","OBJECT_ID":"2022-017N","RCS_SIZE":"LARGE","OBJECT_NAME":"STARLINK-3617","TLE_LINE1":"1 51780U 22017N   23022.40008531  .00034988  00000-0  22043-2 0  9998","APOAPSIS":"540.552","EPHEMERIS_TYPE":"0","MEAN_MOTION_DOT":"0.00034988","SITE":"AFWTR","TIME_SYSTEM":"UTC","OBJECT_TYPE":"PAYLOAD","DECAY_DATE":null},{"DECAY_DATE":null,"OBJECT_TYPE":"PAYLOAD","TIME_SYSTEM":"UTC","SITE":"AFWTR","MEAN_MOTION_DOT":"0.00005312","EPHEMERIS_TYPE":"0","APOAPSIS":"540.807","TLE_LINE1":"1 51781U 22017P   23022.80393188  .00005312  00000-0  35156-3 0  9997","OBJECT_NAME":"STARLINK-3580","RCS_SIZE":"LARGE","OBJECT_ID":"2022-017P","REV_AT_EPOCH":"5168","PERIAPSIS":"538.671","RA_OF_ASC_NODE":"65.2514","PERIOD":"95.437","COUNTRY_CODE":"US","NORAD_CAT_ID":"51781","CLASSIFICATION_TYPE":"U","LAUNCH_DATE":"2022-02-25","ARG_OF_PERICENTER":"80.7439","BSTAR":"0.00035156000000","REF_FRAME":"TEME","SEMIMAJOR_AXIS":"6917.874","TLE_LINE2":"2 51781  53.2164  65.2514 0001544  80.7439 279.3728 15.08842061 51686","MEAN_ELEMENT_THEORY":"SGP4","EPOCH":"2023-01-22T19:17:39.714432","INCLINATION":"53.2164","MEAN_MOTION_DDOT":"0.0000000000000","CENTER_NAME":"EARTH","FILE":"3758205","GP_ID":"223600877","ECCENTRICITY":"0.00015440","MEAN_MOTION":"15.08842061","MEAN_ANOMALY":"279.3728","ELEMENT_SET_NO":"999"},{"FILE":"3757561","ELEMENT_SET_NO":"999","ECCENTRICITY":"0.00012640","GP_ID":"223586762","MEAN_MOTION":"15.08848347","MEAN_ANOMALY":"252.7824","CLASSIFICATION_TYPE":"U","NORAD_CAT_ID":"51782","REF_FRAME":"TEME","LAUNCH_DATE":"2022-02-25","BSTAR":"0.00147400000000","ARG_OF_PERICENTER":"107.3306","TLE_LINE2":"2 51782  53.2175  78.1309 0001264 107.3306 252.7824 15.08848347 51430","SEMIMAJOR_AXIS":"6917.855","MEAN_ELEMENT_THEORY":"SGP4","EPOCH":"2023-01-22T03:48:58.643712","INCLINATION":"53.2175","CENTER_NAME":"EARTH","MEAN_MOTION_DDOT":"0.0000000000000","RCS_SIZE":"LARGE","PERIAPSIS":"538.845","OBJECT_ID":"2022-017Q","REV_AT_EPOCH":"5143","COUNTRY_CODE":"US","RA_OF_ASC_NODE":"78.1309","PERIOD":"95.437","TIME_SYSTEM":"UTC","OBJECT_TYPE":"PAYLOAD","DECAY_DATE":null,"MEAN_MOTION_DOT":"0.00023254","SITE":"AFWTR","EPHEMERIS_TYPE":"0","APOAPSIS":"540.594","TLE_LINE1":"1 51782U 22017Q   23022.15901208  .00023254  00000-0  14740-2 0  9994","OBJECT_NAME":"STARLINK-3616"},{"INCLINATION":"53.2165","TLE_LINE2":"2 51783  53.2165  66.4566 0001240  87.5407 272.5727 15.08869176 51637","EPOCH":"2023-01-22T12:50:48.877152","SEMIMAJOR_AXIS":"6917.791","MEAN_ELEMENT_THEORY":"SGP4","MEAN_MOTION_DDOT":"0.0000000000000","CENTER_NAME":"EARTH","CLASSIFICATION_TYPE":"U","NORAD_CAT_ID":"51783","BSTAR":"0.00155730000000","ARG_OF_PERICENTER":"87.5407","LAUNCH_DATE":"2022-02-25","REF_FRAME":"TEME","MEAN_ANOMALY":"272.5727","GP_ID":"223594691","ECCENTRICITY":"0.00012400","MEAN_MOTION":"15.08869176","ELEMENT_SET_NO":"999","FILE":"3757928","OBJECT_NAME":"STARLINK-3628","TLE_LINE1":"1 51783U 22017R   23022.53528793  .00024603  00000-0  15573-2 0  9995","DECAY_DATE":null,"OBJECT_TYPE":"PAYLOAD","TIME_SYSTEM":"UTC","APOAPSIS":"540.514","EPHEMERIS_TYPE":"0","MEAN_MOTION_DOT":"0.00024603","SITE":"AFWTR","REV_AT_EPOCH":"5163","OBJECT_ID":"2022-017R","PERIAPSIS":"538.798","PERIOD":"95.436","RA_OF_ASC_NODE":"66.4566","COUNTRY_CODE":"US","RCS_SIZE":"LARGE"},{"CENTER_NAME":"EARTH","MEAN_MOTION_DDOT":"0.0000000000000","TLE_LINE2":"2 51784  53.2164  76.3749 0001191 102.1169 257.9956 15.08852124 51506","MEAN_ELEMENT_THEORY":"SGP4","SEMIMAJOR_AXIS":"6917.843","EPOCH":"2023-01-22T13:15:58.989312","INCLINATION":"53.2164","REF_FRAME":"TEME","LAUNCH_DATE":"2022-02-25","BSTAR":"0.00023358000000","ARG_OF_PERICENTER":"102.1169","NORAD_CAT_ID":"51784","CLASSIFICATION_TYPE":"U","ELEMENT_SET_NO":"999","GP_ID":"223594954","MEAN_MOTION":"15.08852124","ECCENTRICITY":"0.00011910","MEAN_ANOMALY":"257.9956","FILE":"3757928","TLE_LINE1":"1 51784U 22017S   23022.55276608  .00003433  00000-0  23358-3 0  9992","OBJECT_NAME":"STARLINK-3632","SITE":"AFWTR","MEAN_MOTION_DOT":"0.00003433","EPHEMERIS_TYPE":"0","APOAPSIS":"540.532","TIME_SYSTEM":"UTC","OBJECT_TYPE":"PAYLOAD","DECAY_DATE":null,"COUNTRY_CODE":"US","RA_OF_ASC_NODE":"76.3749","PERIOD":"95.437","PERIAPSIS":"538.884","OBJECT_ID":"2022-017S","REV_AT_EPOCH":"5150","RCS_SIZE":"LARGE"},{"OBJECT_NAME":"STARLINK-3646","TLE_LINE1":"1 51785U 22017T   23022.53160651  .00004931  00000-0  32755-3 0  9996","APOAPSIS":"540.770","EPHEMERIS_TYPE":"0","SITE":"AFWTR","MEAN_MOTION_DOT":"0.00004931","DECAY_DATE":null,"TIME_SYSTEM":"UTC","OBJECT_TYPE":"PAYLOAD","RA_OF_ASC_NODE":"66.4769","PERIOD":"95.437","COUNTRY_CODE":"US","REV_AT_EPOCH":"5168","OBJECT_ID":"2022-017T","PERIAPSIS":"538.624","RCS_SIZE":"LARGE","MEAN_MOTION_DDOT":"0.0000000000000","CENTER_NAME":"EARTH","INCLINATION":"53.2154","SEMIMAJOR_AXIS":"6917.832","TLE_LINE2":"2 51785  53.2154  66.4769 0001551  95.2248 264.8921 15.08855698 51685","MEAN_ELEMENT_THEORY":"SGP4","EPOCH":"2023-01-22T12:45:30.802464","ARG_OF_PERICENTER":"95.2248","BSTAR":"0.00032755000000","LAUNCH_DATE":"2022-02-25","REF_FRAME":"TEME","CLASSIFICATION_TYPE":"U","NORAD_CAT_ID":"51785","MEAN_ANOMALY":"264.8921","ECCENTRICITY":"0.00015510","GP_ID":"223594958","MEAN_MOTION":"15.08855698","ELEMENT_SET_NO":"999","FILE":"3757928"},{"REF_FRAME":"TEME","BSTAR":"0.00152030000000","ARG_OF_PERICENTER":"98.9676","LAUNCH_DATE":"2022-02-25","NORAD_CAT_ID":"51786","CLASSIFICATION_TYPE":"U","CENTER_NAME":"EARTH","MEAN_MOTION_DDOT":"0.0000000000000","INCLINATION":"53.2164","TLE_LINE2":"2 51786  53.2164  76.4009 0001255  98.9676 261.1459 15.08861278 51543","SEMIMAJOR_AXIS":"6917.815","EPOCH":"2023-01-22T13:05:23.173440","MEAN_ELEMENT_THEORY":"SGP4","FILE":"3757928","ELEMENT_SET_NO":"999","MEAN_ANOMALY":"261.1459","MEAN_MOTION":"15.08861278","GP_ID":"223594688","ECCENTRICITY":"0.00012550","EPHEMERIS_TYPE":"0","APOAPSIS":"540.549","MEAN_MOTION_DOT":"0.00024004","SITE":"AFWTR","OBJECT_TYPE":"PAYLOAD","TIME_SYSTEM":"UTC","DECAY_DATE":null,"OBJECT_NAME":"STARLINK-3638","TLE_LINE1":"1 51786U 22017U   23022.54540710  .00024004  00000-0  15203-2 0  9997","RCS_SIZE":"LARGE","COUNTRY_CODE":"US","RA_OF_ASC_NODE":"76.4009","PERIOD":"95.436","PERIAPSIS":"538.812","REV_AT_EPOCH":"5154","OBJECT_ID":"2022-017U"},{"DECAY_DATE":null,"TIME_SYSTEM":"UTC","OBJECT_TYPE":"PAYLOAD","APOAPSIS":"540.762","EPHEMERIS_TYPE":"0","SITE":"AFWTR","MEAN_MOTION_DOT":"0.00009826","OBJECT_NAME":"STARLINK-3619","TLE_LINE1":"1 51787U 22017V   23022.56012883  .00009826  00000-0  63434-3 0  9990","RCS_SIZE":"LARGE","REV_AT_EPOCH":"5149","OBJECT_ID":"2022-017V","PERIAPSIS":"538.647","PERIOD":"95.437","RA_OF_ASC_NODE":"76.3422","COUNTRY_CODE":"US","NORAD_CAT_ID":"51787","CLASSIFICATION_TYPE":"U","ARG_OF_PERICENTER":"99.6220","BSTAR":"0.00063434000000","LAUNCH_DATE":"2022-02-25","REF_FRAME":"TEME","INCLINATION":"53.2170","TLE_LINE2":"2 51787  53.2170  76.3422 0001529  99.6220 260.4945 15.08853427 51499","SEMIMAJOR_AXIS":"6917.839","MEAN_ELEMENT_THEORY":"SGP4","EPOCH":"2023-01-22T13:26:35.130912","MEAN_MOTION_DDOT":"0.0000000000000","CENTER_NAME":"EARTH","FILE":"3757929","MEAN_ANOMALY":"260.4945","GP_ID":"223594703","ECCENTRICITY":"0.00015290","MEAN_MOTION":"15.08853427","ELEMENT_SET_NO":"999"},{"TLE_LINE1":"1 51788U 22017W   23022.46812871  .00007790  00000-0  50677-3 0  9998","OBJECT_NAME":"STARLINK-3641","TIME_SYSTEM":"UTC","OBJECT_TYPE":"PAYLOAD","DECAY_DATE":null,"SITE":"AFWTR","MEAN_MOTION_DOT":"0.00007790","EPHEMERIS_TYPE":"0","APOAPSIS":"540.583","PERIAPSIS":"538.820","OBJECT_ID":"2022-017W","REV_AT_EPOCH":"5148","COUNTRY_CODE":"US","PERIOD":"95.437","RA_OF_ASC_NODE":"76.7633","RCS_SIZE":"LARGE","EPOCH":"2023-01-22T11:14:06.320544","TLE_LINE2":"2 51788  53.2143  76.7633 0001274  86.8502 273.2636 15.08854272 51483","SEMIMAJOR_AXIS":"6917.837","MEAN_ELEMENT_THEORY":"SGP4","INCLINATION":"53.2143","CENTER_NAME":"EARTH","MEAN_MOTION_DDOT":"0.0000000000000","CLASSIFICATION_TYPE":"U","NORAD_CAT_ID":"51788","REF_FRAME":"TEME","LAUNCH_DATE":"2022-02-25","BSTAR":"0.00050677000000","ARG_OF_PERICENTER":"86.8502","ELEMENT_SET_NO":"999","GP_ID":"223594693","ECCENTRICITY":"0.00012740","MEAN_MOTION":"15.08854272","MEAN_ANOMALY":"273.2636","FILE":"3757929"}];
